$$SOE
2459580.500000000, A.D. 2022-Jan-01 00:00:00.0000, -5.616227905884926E+07, 2.715492644506123E+08, -3.919559578044161E+07,
2459587.500000000, A.D. 2022-Jan-08 00:00:00.0000, -7.006579648679149E+07, 2.683900651452121E+08, -3.867608445697834E+07,
2459594.500000000, A.D. 2022-Jan-15 00:00:00.0000, -8.381456401582126E+07, 2.646379271930004E+08, -3.807112632801766E+07,
2459601.500000000, A.D. 2022-Jan-22 00:00:00.0000, -9.737845582856983E+07, 2.603019104461236E+08, -3.738216928650177E+07,
2459608.500000000, A.D. 2022-Jan-29 00:00:00.0000, -1.107280788349950E+08, 2.553929990565679E+08, -3.661093713081809E+07,
2459615.500000000, A.D. 2022-Feb-05 00:00:00.0000, -1.238349342125731E+08, 2.499240233422717E+08, -3.575941743718208E+07,
2459622.500000000, A.D. 2022-Feb-12 00:00:00.0000, -1.366715662267292E+08, 2.439095643447178E+08, -3.482984740312369E+07,
2459629.500000000, A.D. 2022-Feb-19 00:00:00.0000, -1.492116977084926E+08, 2.373658451715003E+08, -3.382469761780296E+07,
2459636.500000000, A.D. 2022-Feb-26 00:00:00.0000, -1.614303518425952E+08, 2.303106103612855E+08, -3.274665399266401E+07,
2459643.500000000, A.D. 2022-Mar-05 00:00:00.0000, -1.733039588026387E+08, 2.227629947831337E+08, -3.159859822846438E+07,
2459650.500000000, A.D. 2022-Mar-12 00:00:00.0000, -1.848104460869055E+08, 2.147433842557123E+08, -3.038358717159376E+07,
2459657.500000000, A.D. 2022-Mar-19 00:00:00.0000, -1.959293119390936E+08, 2.062732702244467E+08, -2.910483139928526E+07,
2459664.500000000, A.D. 2022-Mar-26 00:00:00.0000, -2.066416816566453E+08, 1.973751007928509E+08, -2.776567336997078E+07,
2459671.500000000, A.D. 2022-Apr-02 00:00:00.0000, -2.169303468925932E+08, 1.880721302846794E+08, -2.636956547235156E+07,
2459678.500000000, A.D. 2022-Apr-09 00:00:00.0000, -2.267797881701824E+08, 1.783882694497948E+08, -2.492004830143981E+07,
2459685.500000000, A.D. 2022-Apr-16 00:00:00.0000, -2.361761810235780E+08, 1.683479389053799E+08, -2.342072941882190E+07,
2459692.500000000, A.D. 2022-Apr-23 00:00:00.0000, -2.451073880421934E+08, 1.579759286291796E+08, -2.187526264009553E+07,
2459699.500000000, A.D. 2022-Apr-30 00:00:00.0000, -2.535629398904970E+08, 1.472972627684352E+08, -2.028732807721574E+07,
2459706.500000000, A.D. 2022-May-07 00:00:00.0000, -2.615340035698787E+08, 1.363370690595930E+08, -1.866061355542915E+07,
2459713.500000000, A.D. 2022-May-14 00:00:00.0000, -2.690133379431643E+08, 1.251204568997047E+08, -1.699879742020725E+07,
2459720.500000000, A.D. 2022-May-21 00:00:00.0000, -2.759952400306390E+08, 1.136724055836580E+08, -1.530553259103287E+07,
2459727.500000000, A.D. 2022-May-28 00:00:00.0000, -2.824754840457279E+08, 1.020176622842133E+08, -1.358443197007604E+07,
2459734.500000000, A.D. 2022-Jun-04 00:00:00.0000, -2.884512543436674E+08, 9.018064977745622E+07, -1.183905529562501E+07,
2459741.500000000, A.D. 2022-Jun-11 00:00:00.0000, -2.939210735300108E+08, 7.818538402746575E+07, -1.007289746274961E+07,
2459748.500000000, A.D. 2022-Jun-18 00:00:00.0000, -2.988847270029015E+08, 6.605540157921895E+07, -8.289378298396617E+06,
2459755.500000000, A.D. 2022-Jun-25 00:00:00.0000, -3.033431851145945E+08, 5.381369651251664E+07, -6.491833759887945E+06,
2459762.500000000, A.D. 2022-Jul-02 00:00:00.0000, -3.072985239222627E+08, 4.148266655238745E+07, -4.683508520355124E+06,
2459769.500000000, A.D. 2022-Jul-09 00:00:00.0000, -3.107538451230592E+08, 2.908406807376639E+07, -2.867549894142137E+06,
2459776.500000000, A.D. 2022-Jul-16 00:00:00.0000, -3.137131960915244E+08, 1.663898056641736E+07, -1.047002929611127E+06,
2459783.500000000, A.D. 2022-Jul-23 00:00:00.0000, -3.161814929612653E+08, 4.167780063740456E+06, 7.751936248789646E+05,
2459790.500000000, A.D. 2022-Jul-30 00:00:00.0000, -3.181644472994744E+08, -8.309882428116378E+06, 2.596210290553311E+06,
2459797.500000000, A.D. 2022-Aug-06 00:00:00.0000, -3.196684932956842E+08, -2.077509747568643E+07, 4.413328579977988E+06,
2459804.500000000, A.D. 2022-Aug-13 00:00:00.0000, -3.207007166921411E+08, -3.320970661124756E+07, 6.223941866608713E+06,
2459811.500000000, A.D. 2022-Aug-20 00:00:00.0000, -3.212687873349639E+08, -4.559630570504642E+07, 8.025555597166749E+06,
2459818.500000000, A.D. 2022-Aug-27 00:00:00.0000, -3.213808955132229E+08, -5.791824365432035E+07, 9.815786869528977E+06,
2459825.500000000, A.D. 2022-Sep-03 00:00:00.0000, -3.210456919985539E+08, -7.015961708028720E+07, 1.159236342940074E+07,
2459832.500000000, A.D. 2022-Sep-10 00:00:00.0000, -3.202722317851018E+08, -8.230526155807850E+07, 1.335312216021313E+07,
2459839.500000000, A.D. 2022-Sep-17 00:00:00.0000, -3.190699215320052E+08, -9.434073989692621E+07, 1.509600713867357E+07,
2459846.500000000, A.D. 2022-Sep-24 00:00:00.0000, -3.174484706324586E+08, -1.062523280003269E+08, 1.681906731574186E+07,
2459853.500000000, A.D. 2022-Oct-01 00:00:00.0000, -3.154178456150894E+08, -1.180269987679823E+08, 1.852045386290936E+07,
2459860.500000000, A.D. 2022-Oct-08 00:00:00.0000, -3.129882273837075E+08, -1.296524039158196E+08, 2.019841724711405E+07,
2459867.500000000, A.D. 2022-Oct-15 00:00:00.0000, -3.101699721124164E+08, -1.411168528716454E+08, 2.185130426992654E+07,
2459874.500000000, A.D. 2022-Oct-22 00:00:00.0000, -3.069735778391381E+08, -1.524092907485554E+08, 2.347755517947044E+07,
2459881.500000000, A.D. 2022-Oct-29 00:00:00.0000, -3.034096541052190E+08, -1.635192782744312E+08, 2.507570045406447E+07,
2459888.500000000, A.D. 2022-Nov-05 00:00:00.0000, -2.994888923764689E+08, -1.744369711901641E+08, 2.664435732389676E+07,
2459895.500000000, A.D. 2022-Nov-12 00:00:00.0000, -2.952220390392913E+08, -1.851530980748658E+08, 2.818222634472203E+07,
2459902.500000000, A.D. 2022-Nov-19 00:00:00.0000, -2.906198715226945E+08, -1.956589377515744E+08, 2.968808803800117E+07,
2459909.500000000, A.D. 2022-Nov-26 00:00:00.0000, -2.856931771219158E+08, -2.059462968426251E+08, 3.116079956453877E+07,
2459916.500000000, A.D. 2022-Dec-03 00:00:00.0000, -2.804527341991511E+08, -2.160074876286492E+08, 3.259929143638753E+07,
2459923.500000000, A.D. 2022-Dec-10 00:00:00.0000, -2.749092955567633E+08, -2.258353063084154E+08, 3.400256428201448E+07,
2459930.500000000, A.D. 2022-Dec-17 00:00:00.0000, -2.690735737992955E+08, -2.354230117799532E+08, 3.536968567450970E+07,
2459937.500000000, A.D. 2022-Dec-24 00:00:00.0000, -2.629562284200214E+08, -2.447643050880764E+08, 3.669978701849862E+07,
2459944.500000000, A.D. 2022-Dec-31 00:00:00.0000, -2.565678541065038E+08, -2.538533094956933E+08, 3.799206048046541E+07,
2459951.500000000, A.D. 2023-Jan-07 00:00:00.0000, -2.499189700023554E+08, -2.626845502677774E+08, 3.924575603661659E+07,
2459958.500000000, A.D. 2023-Jan-14 00:00:00.0000, -2.430200117593504E+08, -2.712529337100518E+08, 4.046017886412720E+07,
2459965.500000000, A.D. 2023-Jan-21 00:00:00.0000, -2.358813268996645E+08, -2.795537286649404E+08, 4.163468687894516E+07,
2459972.500000000, A.D. 2023-Jan-28 00:00:00.0000, -2.285131697057602E+08, -2.875825506833293E+08, 4.276868807048284E+07,
2459979.500000000, A.D. 2023-Feb-04 00:00:00.0000, -2.209256957409912E+08, -2.953353458579549E+08, 4.386163790181682E+07,
2459986.500000000, A.D. 2023-Feb-11 00:00:00.0000, -2.131289576966434E+08, -3.028083745161731E+08, 4.491303692493486E+07,
2459993.500000000, A.D. 2023-Feb-18 00:00:00.0000, -2.051329025347536E+08, -3.099981955932184E+08, 4.592242854888812E+07,
2460000.500000000, A.D. 2023-Feb-25 00:00:00.0000, -1.969473695762042E+08, -3.169016518423615E+08, 4.688939692200971E+07,
2460007.500000000, A.D. 2023-Mar-04 00:00:00.0000, -1.885820893516574E+08, -3.235158558558202E+08, 4.781356491876055E+07,
2460014.500000000, A.D. 2023-Mar-11 00:00:00.0000, -1.800466831142281E+08, -3.298381768858147E+08, 4.869459222715117E+07,
2460021.500000000, A.D. 2023-Mar-18 00:00:00.0000, -1.713506629007193E+08, -3.358662285016803E+08, 4.953217352665527E+07,
2460028.500000000, A.D. 2023-Mar-25 00:00:00.0000, -1.625034318771571E+08, -3.415978571140525E+08, 5.032603673193786E+07,
2460035.500000000, A.D. 2023-Apr-01 00:00:00.0000, -1.535142844880696E+08, -3.470311309549310E+08, 5.107594129311690E+07,
2460042.500000000, A.D. 2023-Apr-08 00:00:00.0000, -1.443924069735792E+08, -3.521643282693524E+08, 5.178167670632607E+07,
2460049.500000000, A.D. 2023-Apr-15 00:00:00.0000, -1.351468805436915E+08, -3.569959258042185E+08, 5.244306135530970E+07,
2460056.500000000, A.D. 2023-Apr-22 00:00:00.0000, -1.257866853566594E+08, -3.615245906268756E+08, 5.305994126551364E+07,
2460063.500000000, A.D. 2023-Apr-29 00:00:00.0000, -1.163207025278356E+08, -3.657491730033283E+08, 5.363218870146085E+07,
2460070.500000000, A.D. 2023-May-06 00:00:00.0000, -1.067577158953992E+08, -3.696686985367898E+08, 5.415970091210045E+07,
2460077.500000000, A.D. 2023-May-13 00:00:00.0000, -9.710641448897013E+07, -3.732823604405741E+08, 5.464239903797844E+07,
2460084.500000000, A.D. 2023-May-20 00:00:00.0000, -8.737539543890293E+07, -3.765895124165177E+08, 5.508022711552571E+07,
2460091.500000000, A.D. 2023-May-27 00:00:00.0000, -7.757316710696159E+07, -3.795896621486649E+08, 5.547315115488590E+07,
2460098.500000000, A.D. 2023-Jun-03 00:00:00.0000, -6.770815235688555E+07, -3.822824653676272E+08, 5.582115828468220E+07,
2460105.500000000, A.D. 2023-Jun-10 00:00:00.0000, -5.778869191947535E+07, -3.846677204823568E+08, 5.612425595736194E+07,
2460112.500000000, A.D. 2023-Jun-17 00:00:00.0000, -4.782304774408679E+07, -3.867453638234438E+08, 5.638247119937868E+07,
2460119.500000000, A.D. 2023-Jun-24 00:00:00.0000, -3.781940599952289E+07, -3.885154654268614E+08, 5.659584987893361E+07,
2460126.500000000, A.D. 2023-Jul-01 00:00:00.0000, -2.778587945600915E+07, -3.899782245150907E+08, 5.676445603340650E+07,
2460133.500000000, A.D. 2023-Jul-08 00:00:00.0000, -1.773051090892200E+07, -3.911339638381605E+08, 5.688837147472589E+07,
2460140.500000000, A.D. 2023-Jul-15 00:00:00.0000, -7.661278908221282E+06, -3.919831256878760E+08, 5.696769555547827E+07,
$$EOE